GAOFEN-2                
1 40118U 14049A   26186.62220696  .00001595  00000+0  21313-3 0  9990
2 40118  98.0096 250.8117 0007497 162.5796 197.5675 14.80923338641962
GAOFEN-3                
1 41727U 16049A   26186.60789543  .00000100  00000+0  43377-4 0  9994
2 41727  98.4011 194.1158 0001705  90.8434 269.2952 14.42218128521305
GAOFEN-1 04             
1 43262U 18031D   26186.61831759  .00001711  00000+0  25327-3 0  9994
2 43262  98.0514 249.1429 0001714  60.7325 299.4055 14.76464788445409
GAOFEN-11 01            
1 43585U 18063A   26186.63568654  .00010503  00000+0  15326-3 0  9997
2 43585  97.1275 253.4684 0002218 247.0160 113.0861 15.55852104443213
GAOFEN-10R              
1 44622U 19066A   26186.64064066  .00001288  00000+0  16500-3 0  9998
2 44622  98.0505 140.3546 0007176  77.6549 282.5467 14.83042288365119
GAOFEN-12 01            
1 44819U 19082A   26186.59871359  .00000420  00000+0  61495-4 0  9990
2 44819  97.8104 192.4923 0001475  53.7141 306.4208 14.80474120356812
GAOFEN-12 02            
1 48079U 21026A   26186.61175294  .00000398  00000+0  59203-4 0  9999
2 48079  97.9928 184.7174 0005177 158.3780 201.7652 14.80310907284480
GAOFEN-3 02             
1 49495U 21109A   26186.57280245 -.00000002  00000+0  12579-4 0  9990
2 49495  98.4088 194.4084 0001651 318.6926  41.4138 14.42219201242968
GAOFEN-12 03            
1 52912U 22069A   26186.64487378  .00001139  00000+0  15706-3 0  9993
2 52912  97.8252  74.0477 0002439  83.9758 276.1732 14.80064934217345
GAOFEN-12 04            
1 57654U 23123A   26186.59502594  .00001082  00000+0  15067-3 0  9992
2 57654  97.9110 104.3403 0003885  69.7085 290.4544 14.79762603155352
