{
 "generated_at": "2026-07-06T09:00:32Z",
 "sources": [
  {
   "name": "CelesTrak",
   "url": "https://celestrak.org/NORAD/elements/",
   "license": "frei verfügbar; Attribution. Ursprünglich USSPACECOM/Space-Track."
  },
  {
   "name": "GCAT (J. McDowell, planet4589.org)",
   "url": "https://planet4589.org/space/gcat/",
   "license": "CC-BY 4.0"
  }
 ],
 "satellites": [
  {
   "norad": 43262,
   "name": "GAOFEN-1 04",
   "intl": "2018-031D",
   "group": "resource",
   "gcat": {
    "class": "C",
    "category": "IMG",
    "owner": "CNSAS",
    "state": "CN"
   },
   "omm": {
    "OBJECT_NAME": "GAOFEN-1 04",
    "OBJECT_ID": "2018-031D",
    "EPOCH": "2026-07-05T14:50:22.639776",
    "MEAN_MOTION": 14.76464788,
    "ECCENTRICITY": 0.00017147,
    "INCLINATION": 98.0514,
    "RA_OF_ASC_NODE": 249.1429,
    "ARG_OF_PERICENTER": 60.7325,
    "MEAN_ANOMALY": 299.4055,
    "EPHEMERIS_TYPE": 0,
    "CLASSIFICATION_TYPE": "U",
    "NORAD_CAT_ID": 43262,
    "ELEMENT_SET_NO": 999,
    "REV_AT_EPOCH": 44540,
    "BSTAR": 0.00025327095,
    "MEAN_MOTION_DOT": 0.00001711,
    "MEAN_MOTION_DDOT": 0
   }
  },
  {
   "norad": 44622,
   "name": "GAOFEN-10R",
   "intl": "2019-066A",
   "group": "resource",
   "gcat": {
    "class": null,
    "category": null,
    "owner": null,
    "state": null
   },
   "omm": {
    "OBJECT_NAME": "GAOFEN-10R",
    "OBJECT_ID": "2019-066A",
    "EPOCH": "2026-07-05T15:22:31.353024",
    "MEAN_MOTION": 14.83042288,
    "ECCENTRICITY": 0.00071762,
    "INCLINATION": 98.0505,
    "RA_OF_ASC_NODE": 140.3546,
    "ARG_OF_PERICENTER": 77.6549,
    "MEAN_ANOMALY": 282.5467,
    "EPHEMERIS_TYPE": 0,
    "CLASSIFICATION_TYPE": "U",
    "NORAD_CAT_ID": 44622,
    "ELEMENT_SET_NO": 999,
    "REV_AT_EPOCH": 36511,
    "BSTAR": 0.00016499768,
    "MEAN_MOTION_DOT": 0.00001288,
    "MEAN_MOTION_DDOT": 0
   }
  },
  {
   "norad": 43585,
   "name": "GAOFEN-11 01",
   "intl": "2018-063A",
   "group": "resource",
   "gcat": {
    "class": null,
    "category": null,
    "owner": null,
    "state": null
   },
   "omm": {
    "OBJECT_NAME": "GAOFEN-11 01",
    "OBJECT_ID": "2018-063A",
    "EPOCH": "2026-07-05T15:15:23.317056",
    "MEAN_MOTION": 15.55852104,
    "ECCENTRICITY": 0.00022183,
    "INCLINATION": 97.1275,
    "RA_OF_ASC_NODE": 253.4684,
    "ARG_OF_PERICENTER": 247.016,
    "MEAN_ANOMALY": 113.0861,
    "EPHEMERIS_TYPE": 0,
    "CLASSIFICATION_TYPE": "U",
    "NORAD_CAT_ID": 43585,
    "ELEMENT_SET_NO": 999,
    "REV_AT_EPOCH": 44321,
    "BSTAR": 0.00015325864,
    "MEAN_MOTION_DOT": 0.00010503,
    "MEAN_MOTION_DDOT": 0
   }
  },
  {
   "norad": 44819,
   "name": "GAOFEN-12 01",
   "intl": "2019-082A",
   "group": "resource",
   "gcat": {
    "class": null,
    "category": null,
    "owner": null,
    "state": null
   },
   "omm": {
    "OBJECT_NAME": "GAOFEN-12 01",
    "OBJECT_ID": "2019-082A",
    "EPOCH": "2026-07-05T14:22:08.854176",
    "MEAN_MOTION": 14.8047412,
    "ECCENTRICITY": 0.00014758,
    "INCLINATION": 97.8104,
    "RA_OF_ASC_NODE": 192.4923,
    "ARG_OF_PERICENTER": 53.7141,
    "MEAN_ANOMALY": 306.4208,
    "EPHEMERIS_TYPE": 0,
    "CLASSIFICATION_TYPE": "U",
    "NORAD_CAT_ID": 44819,
    "ELEMENT_SET_NO": 999,
    "REV_AT_EPOCH": 35681,
    "BSTAR": 0.000061494764,
    "MEAN_MOTION_DOT": 0.0000042,
    "MEAN_MOTION_DDOT": 0
   }
  },
  {
   "norad": 48079,
   "name": "GAOFEN-12 02",
   "intl": "2021-026A",
   "group": "resource",
   "gcat": {
    "class": "D",
    "category": "IMG-R",
    "owner": "ZLZB",
    "state": "CN"
   },
   "omm": {
    "OBJECT_NAME": "GAOFEN-12 02",
    "OBJECT_ID": "2021-026A",
    "EPOCH": "2026-07-05T14:40:55.454016",
    "MEAN_MOTION": 14.80310907,
    "ECCENTRICITY": 0.00051778,
    "INCLINATION": 97.9928,
    "RA_OF_ASC_NODE": 184.7174,
    "ARG_OF_PERICENTER": 158.378,
    "MEAN_ANOMALY": 201.7652,
    "EPHEMERIS_TYPE": 0,
    "CLASSIFICATION_TYPE": "U",
    "NORAD_CAT_ID": 48079,
    "ELEMENT_SET_NO": 999,
    "REV_AT_EPOCH": 28448,
    "BSTAR": 0.000059203487,
    "MEAN_MOTION_DOT": 0.00000398,
    "MEAN_MOTION_DDOT": 0
   }
  },
  {
   "norad": 52912,
   "name": "GAOFEN-12 03",
   "intl": "2022-069A",
   "group": "resource",
   "gcat": {
    "class": "D",
    "category": "IMG-R",
    "owner": "ZLZB",
    "state": "CN"
   },
   "omm": {
    "OBJECT_NAME": "GAOFEN-12 03",
    "OBJECT_ID": "2022-069A",
    "EPOCH": "2026-07-05T15:28:37.094592",
    "MEAN_MOTION": 14.80064934,
    "ECCENTRICITY": 0.00024394,
    "INCLINATION": 97.8252,
    "RA_OF_ASC_NODE": 74.0477,
    "ARG_OF_PERICENTER": 83.9758,
    "MEAN_ANOMALY": 276.1732,
    "EPHEMERIS_TYPE": 0,
    "CLASSIFICATION_TYPE": "U",
    "NORAD_CAT_ID": 52912,
    "ELEMENT_SET_NO": 999,
    "REV_AT_EPOCH": 21734,
    "BSTAR": 0.00015706193,
    "MEAN_MOTION_DOT": 0.00001139,
    "MEAN_MOTION_DDOT": 0
   }
  },
  {
   "norad": 57654,
   "name": "GAOFEN-12 04",
   "intl": "2023-123A",
   "group": "resource",
   "gcat": {
    "class": "D",
    "category": "IMG-R",
    "owner": "ZLZB",
    "state": "CN"
   },
   "omm": {
    "OBJECT_NAME": "GAOFEN-12 04",
    "OBJECT_ID": "2023-123A",
    "EPOCH": "2026-07-05T14:16:50.241216",
    "MEAN_MOTION": 14.79762603,
    "ECCENTRICITY": 0.00038852,
    "INCLINATION": 97.911,
    "RA_OF_ASC_NODE": 104.3403,
    "ARG_OF_PERICENTER": 69.7085,
    "MEAN_ANOMALY": 290.4544,
    "EPHEMERIS_TYPE": 0,
    "CLASSIFICATION_TYPE": "U",
    "NORAD_CAT_ID": 57654,
    "ELEMENT_SET_NO": 999,
    "REV_AT_EPOCH": 15535,
    "BSTAR": 0.00015066831,
    "MEAN_MOTION_DOT": 0.00001082,
    "MEAN_MOTION_DDOT": 0
   }
  },
  {
   "norad": 40118,
   "name": "GAOFEN-2",
   "intl": "2014-049A",
   "group": "resource",
   "gcat": {
    "class": "C",
    "category": "IMG",
    "owner": "CNSAS",
    "state": "CN"
   },
   "omm": {
    "OBJECT_NAME": "GAOFEN-2",
    "OBJECT_ID": "2014-049A",
    "EPOCH": "2026-07-05T14:55:58.681344",
    "MEAN_MOTION": 14.80923338,
    "ECCENTRICITY": 0.00074975,
    "INCLINATION": 98.0096,
    "RA_OF_ASC_NODE": 250.8117,
    "ARG_OF_PERICENTER": 162.5796,
    "MEAN_ANOMALY": 197.5675,
    "EPHEMERIS_TYPE": 0,
    "CLASSIFICATION_TYPE": "U",
    "NORAD_CAT_ID": 40118,
    "ELEMENT_SET_NO": 999,
    "REV_AT_EPOCH": 64196,
    "BSTAR": 0.00021312755,
    "MEAN_MOTION_DOT": 0.00001595,
    "MEAN_MOTION_DDOT": 0
   }
  },
  {
   "norad": 41727,
   "name": "GAOFEN-3",
   "intl": "2016-049A",
   "group": "resource",
   "gcat": {
    "class": "C",
    "category": "IMG-R",
    "owner": "GWHYZ",
    "state": "CN"
   },
   "omm": {
    "OBJECT_NAME": "GAOFEN-3",
    "OBJECT_ID": "2016-049A",
    "EPOCH": "2026-07-05T14:35:22.165152",
    "MEAN_MOTION": 14.42218128,
    "ECCENTRICITY": 0.00017053,
    "INCLINATION": 98.4011,
    "RA_OF_ASC_NODE": 194.1158,
    "ARG_OF_PERICENTER": 90.8434,
    "MEAN_ANOMALY": 269.2952,
    "EPHEMERIS_TYPE": 0,
    "CLASSIFICATION_TYPE": "U",
    "NORAD_CAT_ID": 41727,
    "ELEMENT_SET_NO": 999,
    "REV_AT_EPOCH": 52130,
    "BSTAR": 0.000043377185,
    "MEAN_MOTION_DOT": 0.000001,
    "MEAN_MOTION_DDOT": 0
   }
  },
  {
   "norad": 49495,
   "name": "GAOFEN-3 02",
   "intl": "2021-109A",
   "group": "sar",
   "gcat": {
    "class": "C",
    "category": "IMG-R",
    "owner": "GWHYZ",
    "state": "CN"
   },
   "omm": {
    "OBJECT_NAME": "GAOFEN-3 02",
    "OBJECT_ID": "2021-109A",
    "EPOCH": "2026-07-05T13:44:50.131680",
    "MEAN_MOTION": 14.42219201,
    "ECCENTRICITY": 0.00016519,
    "INCLINATION": 98.4088,
    "RA_OF_ASC_NODE": 194.4084,
    "ARG_OF_PERICENTER": 318.6926,
    "MEAN_ANOMALY": 41.4138,
    "EPHEMERIS_TYPE": 0,
    "CLASSIFICATION_TYPE": "U",
    "NORAD_CAT_ID": 49495,
    "ELEMENT_SET_NO": 999,
    "REV_AT_EPOCH": 24296,
    "BSTAR": 0.000012578831,
    "MEAN_MOTION_DOT": -2e-8,
    "MEAN_MOTION_DDOT": 0
   }
  }
 ]
}
